[{"OBJECT_NAME":"STARLINK-32414","OBJECT_ID":"2024-193G","EPOCH":"2026-03-09T08:41:31.527744","MEAN_MOTION":15.3019375,"ECCENTRICITY":0.00012363,"INCLINATION":53.1605,"RA_OF_ASC_NODE":92.7322,"ARG_OF_PERICENTER":99.8757,"MEAN_ANOMALY":260.2383,"EPHEMERIS_TYPE":0,"CLASSIFICATION_TYPE":"U","NORAD_CAT_ID":61667,"ELEMENT_SET_NO":999,"REV_AT_EPOCH":7647,"BSTAR":4.063627e-6,"MEAN_MOTION_DOT":-2.39e-6,"MEAN_MOTION_DDOT":0},{"OBJECT_NAME":"NOAA 17 DEB","OBJECT_ID":"2002-032AF","EPOCH":"2026-03-09T00:24:06.552000","MEAN_MOTION":15.25501717,"ECCENTRICITY":0.00030847,"INCLINATION":98.6472,"RA_OF_ASC_NODE":92.5947,"ARG_OF_PERICENTER":165.9893,"MEAN_ANOMALY":194.1428,"EPHEMERIS_TYPE":0,"CLASSIFICATION_TYPE":"U","NORAD_CAT_ID":48614,"ELEMENT_SET_NO":999,"REV_AT_EPOCH":26420,"BSTAR":0.01090047,"MEAN_MOTION_DOT":0.00286783,"MEAN_MOTION_DDOT":0}]
